name,address,city,state,longitude,latitude,phone
Canada Olympic Park,"88 Canada Olympic Road SW, Calgary,AB",Calgary,AB ,-114.215597,51.08296,(403) 247-5452
Canyon Ski Area,"Site 8 Box 26 RR 2 Lcd 1, Red Deer,AB",Red Deer,AB ,-113.682207,52.304426,(403) 346-7003
Castle Mountain,"Box 610 Pincher Creek,  Banff National Park,AB",Pincher Creek,AB ,-114.413802,49.31866,(403) 543-4500
Drumheller Valley Ski Club,"1695 6th Ave SW, Drumheller,AB",Drumheller,AB ,-113.475781,53.53452,(403) 823-2277
Edmonton Ski Club,"9613 96 Ave NW, Edmonton,AB",Edmonton,AB ,-113.479045,53.53365,(780) 465-852
Fairview Ski Hill,"PO Box 618, Fairview,AB",Fairview,AB ,-118.604365,55.994589,(780) 835-4725
Fortress Mountain,"1 Fortress Mountain Rd, Kananaskis,AB",Fortress Mountain,AB ,-115.194227,50.818108,(403) 591-7108
Hidden Valley,"3314 17 Ave SW, Medicine Hat,AB",Cypress Hills Provincial Park,AB ,-110.26036,49.656765,(403) 893-3961
Kinosoo Ridge,"PO Box 390 Stn Main, Cold Lake, AB",Cold Lake Provincial Park,AB ,-110.019178,54.440092,(780) 594-5564
Marmot Basin,"1 Marmot Basin Road, Jasper,AB",Jasper,AB ,-118.082383,52.800994,(780) 852-3816
Misery Mountain,"10408  89 St, Peace River,AB",Peace River,AB ,-117.301805,56.226018,(780) 624-4881
Mount Norquay,"Mt Norquay Rd, Banff,AB",Banff,AB ,-115.599279,51.201544,(403) 762-4421
Nakiska Ski Resort,"PO Box 1988, Kananaskis,AB",Kananaskis,AB ,-115.150505,50.940679,(403) 591-7777
Nitehawk Recreation Area,"PO Box 1006, Grande Prairie,AB",Grand Prairie,AB ,-118.862656,55.05542,(780) 532-6637
Pass Powderkeg,"12402 18 Ave, Blairmore,AB",Crowsnest Pass,AB ,-114.449448,49.602317,(403) 562-8334
Rabbit Hill Snow Resort,"25512 Township Road 510, Leduc County,AB",Edmonton,AB ,-113.675708,53.381075,(780) 955-2440
Silver Summit,"1184 Wedgewood Blvd NW, Edmonton,AB",Edmonton,AB ,-113.703645,53.484433,(780) 447-4476
Snow Valley Ski Club,"119 St off Whitemud Freeway, Edmonton,AB",Edmonton,AB ,-113.555339,53.483583,(780) 434-3991
Sunridge Ski,"10980 17 St, Edmonton,AB",Edmonton,AB ,-113.369292,53.562514,(780) 449-6555
Sunshine Village,"400/500 11 Ave SW, Calgary,AB",Calgary,AB ,-115.761932,51.115397,(403) 705-4000
The Lake Louise Ski Area,"1 Whitehorn Road, Lake Louise,AB",Lake Louise,AB ,-116.162865,51.44197,(877) 956-8473
Vista Ridge,780-799-SNOW,Fort Mcmurray,AB ,-111.133512,56.661418,(780) 799-SNOW
Whispering Pines,"PO Box 180, Worsley,AB",Worsley,AB ,-119.391494,56.602188,(780) 685-2594
Apex Mountain Resort,"115 Clearview Crescent, Penticton,AB",Penticton,BC ,-119.904022,49.39104,(250) 292-8118
Big White Ski Resort,"5315 Big White Rd, Kelowna,BC",Kelowna,BC ,-118.92577,49.718566,(250) 765-8888
Crystal Mountain,"PO Box 26044 Rpo Westbank, Westbank,BC",Crystal Mountain,BC ,-119.710794,49.88041,(250) 768-5189
Cypress Mountain,"6000 Cypress Bowl Rd, West Vancouver,BC",West Vancouver,BC ,-123.202498,49.395115,(604) 926-5612
Fernie Alpine Resort,"5339 Fernie Ski Hill Road RR 6, Fernie,BC",Fernie,BC ,-115.085791,49.462997,(250) 423-4655
Grouse Mountain,"Nancy Greene Way, North Vancouver,BC",Vancouver,BC ,-123.078523,49.380984,(604) 986-6262
Harper Mountain,"2042 Valleyview Dr, Kamloops,BC",Kamloops,BC ,-120.139737,50.723289,(250) 372-2119
Hemlock Resort,"20955 Hemlock Valley Road, Agassiz,BC",Agissiz,BC ,-121.93634,49.379895,(604) 797-4411
Kicking Horse Resort,"1500 Kicking Horse Trail, Golden,BC",Golden,BC ,-117.047155,51.297888,(250) 439-5424
Kimberley Alpine Resort,"Box 40, Kimberley,BC",Kimberly,BC ,-116.00827,49.685914,(403) 244-6665
Mount Washington Alpine Resort,"1 Strathcona Pkwy, Mount Washington,BC",Mount Washington,BC ,-125.298295,49.739333,(888) 231-1499
Red Mountain Resort,"4300 Red Mountain Rd, Rossland,BC",Rossland,BC ,-117.819631,49.104014,(800) 663-1015
Revelstoke Mountain Resort,"2870 Camozzi Rd, Revelstoke,BC",Revelstoke,BC ,-118.150691,50.954643,(250) 837-9400
Silver Star Mountain Resort,"PO Box 3002, Silver Star Mountain,BC",Silver Star Mountain,BC ,-119.060773,50.359047,(250) 542-1745
Sun Peaks Resort,"1280 Alpine Road, Sun Peaks,BC",Sun Peaks,BC ,-119.889384,50.883869,(250) 578-7222
Whistler Blackcomb,"4545 Blackcoomb Wy, Whistler,BC",Whistler,BC ,-122.944343,50.111444,(604) 932-3434
Asessippi Ski Area,"Box 70, Inglis,MB",Inglis,MB ,-101.340102,50.951128,(204) 564-2000
Falcon Ridge Ski Area,"PO Box 130, Falcon Beach,MB",Falcon Beach,MB ,-95.19075,49.70406,(204) 349-8935
Holiday Mountain,"Holiday Mountain, La Riviere,MB",La Riviere,MB ,-98.694045,49.237479,(204) 242-2172
Mystery Mountain Winter Resort,"PO Box 246, Thompson,MB",Thompson,MB ,-97.777107,55.868939,(204) 242-2172
Stony Mountain Ski Area,"11016 E Sellars Hill Road, Stony Mountain,MB",Stony Mountain,MB ,-97.206603,50.094291,(204) 344-5977
Crabbe Mountain,"Crabbe Mountain Rd, Bright,NB",Central Hainesville,NB ,-67.106437,46.119638,(506) 463-8259
Poley Mountain,"1015 Main St, Sussex,NB",Sussex,NB ,-65.361691,45.676037,(866) 433-2480
Sugarloaf Provincial Park Ski Resort,"Sugarloaf Provincial Park, Atholville,NB",Atholville,NB ,-66.694751,47.982424,(506) 789-2366
Marble Mountain,"PO Box 245 RR 1, Corner Brook,NF",Corner Brook,NF ,-57.83512,48.949053,(902) 492-960
White Hills (Newfoundland),"100 White Hills Rd, Clarenville,NF",Clarenville,NF ,-54.045962,48.163047,(800) 466-4559
Beaver Valley Ski Club,"RR 4 100 Pioneer Dr, Markdale,ON",Markdale,ON ,-80.544543,44.35757,(519) 986-2520
Blue Mountain Ski Resort,"108 Jozo Weider Blvd, Collingwood,OH",Collingwood,ON ,-80.304199,44.496724,(877) 445-231
Boler Mountain,"689 Griffith St, London,ON",London,ON ,-81.33804,42.94432,(519) 657-8822
Calabogie Peaks,"30 Barrett Chute Road, Calabogie,ON",Calabogie,ON ,-76.780389,45.275699,(613) 752-2720
Caledon Ski Club,"17431 Mississauga Rd, Caledon,ON",Caledon,ON ,-80.012818,43.801578,(519) 927-5221
Chicopee Ski Club,"396 Morrison Rd, Kitchener,ON",Kitchener,ON ,-80.424412,43.436525,(877) 244-2673
Cobble Hills Ski and Snowboard Club,"5714 Cobble Hills Rd, Thamesford,ON",Thamesford,ON ,-81.069081,43.108572,(519) 461-1720
Dagmar Resort,"1220 Lakeridge Rd, Ashburn,ON",Ashburn,ON ,-79.058451,44.012251,(905) 649-2002
Devil's Elbow Ski Area,"878 Bethany Hills Rd, Bethany,ON",Bethany,ON ,-78.559482,44.247101,(705) 277-2012
Glen Eden Ski and Snowboarding Centre,"5234 Kelso Rd, Milton,ON",Milton,ON ,-79.943577,43.506824,(905) 878-5011
Hardwood Hills,"402 Old Barrie Rd West RR1, Oro Station,ON",Oro Station,ON ,-79.597154,44.518515,(705) 487-3775
Hidden Valley Highlands,"1655 Hidden Valley Rd, Huntsville,ON",Huntsville,ON ,-79.132218,45.357445,(800) 398-9555
Hockley Valley Resort,"RR 1 3rd Line, Orangeville,ON",Orangeville,ON ,-80.046303,43.977962,(519) 942-754
Horseshoe Resort,"1101 Horseshoe Valley Rd, Barrie,ON",Barrie,ON ,-79.67383,44.550402,(800) 461-5627
Matawa Ski Hill,"PO Box 541, Mattawa,ON",Matawa,ON ,-78.530727,46.291131,(800) 762-2339
The Gerogian Peaks Club,"PO Box 400, Thornbury,ON",Thornbury,ON ,-80.376964,44.534752,(519) 599-6771
Belle Neige,"6820 Rt 117, Val Morin,QC",Val Morin,QC ,-74.279506,46.048351,(877) 600-3311
Bromont Ski Resort,"150 Champlain St, Bromont,QC",Bromont,QC ,-72.638536,45.303422,(450) 534-2200
Camp Fortune,"300 Chemin Dunlop, Chelsea,QC",Chelsea,QC ,-75.852867,45.508978,(819) 827-1717
Le Massif Petite Riviere,"1350 Rue Principale, Petite Riviere St Francois,QC",Saint Francois,QC,-70.609866,47.278108,(418) 632-5876
Les Relais,"1084 Boulevard du Lac, Lac Beauport,QC",Lac Beauport,QC ,-71.300494,46.940968,(866) 373-5247
Massif du Sud,"1989 Rt Du Massif, Bellechasse,QC",Bellechasse,QC ,-70.488915,46.621414,
Mont Cascades,"448 Mont Cascades,Cantley,QC",Cantley,QC ,-75.84954,45.592887,(888) 282-2722
Mont Gabriel,"1699 Chemin Du Mont Gabriel, Sainte Adele,QC",Sainte Adele,QC ,-74.142503,45.91561,(800) 668-5253
Mont Grand Fonds,"1000 Chemin des Loisirs, La Malbaie,QC",La Maibaie,QC ,-70.104026,47.771004,(418) 665-4120
Mont Orford,"4380 Chemin du Parc, Orford,QC",Orford,QC ,-72.219559,45.318219,(800) 567-2772
Mont Original,"Lac Etchemin, QC",Lac Etchemin,QC ,-70.581138,46.410576,(877) 335-1551
Mont Saint Bruno,"550 Rang des Vingt Cinq, St Bruno,QC",Saint Bruno,QC ,-73.365584,45.536409,(450) 653-3646
Mont Sainte Anne,"500 Beaupre Blvd, Beaupre,QC",Beaupre,QC ,-70.905624,47.074284,(888) 827-4579
Mont Tremblant,"1000 Chemin des Voyageurs, Mont Tremblant,QC",Quebec,QC ,-74.596888,46.205323,(888) 738-1777
Owl's Head,"40 Ch Du Mont Owls Head, Mansonville,QC",Mansonville,QC ,-72.300214,45.073871,(800) 363-3067
Parc du Mont Comi,"300 Chemin du Plateau, Saint Donat de Rimouski,QC",Saint Donat De Rimouski,QC ,-68.195319,48.467265,(418) 739-4858
Ski Chantecler,"1474 Chemin Chantecler 15 nord Exit 67, Saint Adele,QC",Saint Adele,QC ,-74.175179,45.963351,(888) 916-1616
Vallee Bleue Ski Centre,"1418 Chemin Vallee Bleue, Val David,QC",Val David,QC ,-74.214528,46.022578,(866) 322-3427
Vallee du Parc,"10000 Blvd de la Vallee Du Parc, Grand Mere,QC",Grand Mere,QC ,-72.797868,46.614335,(800) 363-1639
Vorlage Ski Resort,"65 Burnside Rd, Wakefield,QC",Wakefield,QC ,-75.933905,45.645236,(819) 459-2301
Mount Sima,"Mount Sima near Whitehorse,YT",Whitehorse,YT ,-135.044926,60.611935,(867) 667-SKIS
Cloudmont Ski Resort,"PO Box 435, Mentone,AL",Mentone,AL ,-85.603281,34.536767,(256) 634-4344
Alpenglow,"Artic Valley Rd, Fort Richardson,AK",Fort Richardson,AK ,-149.534853,61.246668,(907) 428-1208
Alyeska,"PO Box 249, Girdwood,AK",Girdwood,AK ,-149.112157,60.959812,(907) 754-2285
Eaglecrest,"3000 Fish Creek Road, Juneau,AK",Juneau,AK ,-134.515115,58.276479,(907) 586-5284
Hillberg Ski Area,"Elemendorf AFB,AK",Elmendorf AFB,AK ,-149.820987,61.275743,(907) 552-4838
Moose Mountain,"Fairbanks,AK",Fairbanks,AK ,-147.990862,64.93989,(907) 479-4732
Mount Eyak,"Ski Hill Rd, Cordova,AK",Cordova,AK ,-145.75042,60.549244,(907) 424-7766
Mt Aurora Skiland,"2315 Skiland Road, Fairbanks,AK",Fairbanks,AK ,-147.412253,65.045313,(907) 456-SNOW
Salmonberry Ridge Ski Area,"Salmonberry Ridge Ski Area,AK",Valdez,AK ,-111.705515,35.330535,(907) 424-7766
The Hilltop Ski Area,"7015 Abbott Road, Anchorage,AK",Anchorage,AK ,-149.745475,61.14092,(907) 346-2167
Arizona Snowbowl,"PO Box 40, Flagstaff,AZ",Flagstaff,AZ ,-111.705515,35.330535,(928) 779-1951
Elk Ridge Ski Area,"2467 S Perkinsville Rd, Williams,AZ",Williams,AZ ,-112.193157,35.215626,(928) 814-5038
Mount Lemmon Ski Valley,"PO Box 40, Flagstaff,AZ",Tucson,AZ ,-110.780941,32.448241,(520) 576-1400
Sunrise Park Resort,"PO Box 117, Greer,AZ",Greer,AZ ,-109.564995,33.977809,(520) 735-7669
Alpine Meadows Ski Resort,"2600 Alpine Meadows Rd, Tahoe City,CA",Tahoe City,CA ,-116.888354,34.236022,(530) 583-4232
Alta Sierra,"PO Box 82562, Bakersfield,CA",Shirley Meadows,CA ,-118.56044,35.711263,(760) 376-4186
Badger Pass,"Yosemite National Park,CA",Yosemite National Park,CA ,-122.203099,41.319932,(209) 372-8430
Bear Valley Mountain Resort,"Hwy 4 @ Hwy 207, Bear Valley,CA",Bear Valley,CA ,-120.041248,38.462703,(209) 753-2301
Big Bear Mountain Resort,"880 Summit Blvd, Big Bear Lake,CA",Big Bear Lake,CA ,-116.91144,34.2437,(909) 866-5766
Boreal Mountain Resort,"PO Box 39, Truckee,CA",Truckee,CA ,-120.34823,39.338578,(530) 426-3666
Buckhorn Ski Club,"Buckhorn Ski Club,CA",Buckhorn Ski Club,CA,-117.921001,34.346598,(714) 537-5999
Coppervale Ski Area,"478/200 Hwy 139, Susanville,CA",Chester,CA ,-121.288222,40.290885,(530) 257-9965
Dodge Ridge,"1 Dodge Ridge Rd, Pinecrest,CA",Pinecrest,CA ,-119.955824,38.190047,(209) 965-3474
Donner Ski Ranch,"19320 Donner Pass Rd, Norden,CA",Norden,CA ,-120.330321,39.317659,(530) 426-3635
Granlibakken,"725 Granlibakken Rd, Tahoe City,CA",Tahoe City,CA ,-120.154396,39.1558,(877) 552-6301
Heavenly Mountain Resort,"Corner of Wildwood and Saddle, South Lake Tahoe,CA",South Lake Tahoe,CA ,-119.940125,38.935803,(877) 552-6301
Homewood Ski Resort,"Corner of Wildwood and Saddle, South Lake Tahoe,CA",Homewood,CA ,-120.160496,39.086143,(877) 552-6301
June Mountain,"20 miles north of Mammoth Lakes,CA",June Lake,CA ,-119.090822,37.768463,(760) 648-7733
Kirkwood Mountain Resort,"1501 Kirkwood Meadows Dr, Kirkwood,CA",Kirkwood,CA ,-120.07163,38.686207,(209) 258-6000
Mammoth Mountain Ski Area,"1 Minaret Rd, Mammoth Lakes,CA",Mammoth Lakes,CA ,-119.008042,37.649169,(760) 934-2571
Montecito Sequoia Resort,"2225 Grant Rd, Los Altos,CA",Montecito Sequoia Resort,CA ,-118.871719,36.694196,(800) 227-9900
Mount Shasta Ski Park,Hwy 89 east of I 5,Mt Shasta,CA ,-122.20371,41.320235,(530) 926-8610
Mount Waterman,"954 Foothill Blvd, La Canada,CA",La Canada,CA ,-118.199929,34.204014,(530) 926-8610
Mountain High,"24510 State Hwy 2, Wrightwood,CA",Wrightwood,CA ,-117.593854,34.38322,(760) 249-5808
Mt Baldy,"6700 Mt Baldy Rd, Mt Baldy,CA",Mt Baldy,CA ,-117.623404,34.269926,(909) 981-3344
Mt Rose Ski Tahoe,"22222 Mt Rose Hwy, Reno,CA",Reno,CA ,-119.885338,39.329518,(800) SKI-ROSE
Northstar at Tahoe,"100 Northstar Dr, Truckee,CA",Truckee,CA ,-120.122588,39.275891,(530) 562-1010
Palisades Tahoe,"1960 Squaw Valley Rd, Olympic Valley,CA",Olympic Valley,CA ,-120.23534,39.197543,(530) 583-6985
Plumas Eureka Bowl,"Jonesville Rd [CR A 14], Eureka State Park,CA",Eureka State Park,CA ,-120.697464,39.765177,(530) 283-6345
Shirley Meadows Ski Area,"56700 Rancheria Rd, Wofford Heights,CA",Wofford Heights,CA ,-118.560256,35.711494,(760) 376-4186
Sierra at Tahoe,"59265 Hwy 168, Lakeshore,CA",Twin Bridges,CA ,-120.080713,38.80078,(530) 659-7453
Sierra Summit,"59265 Hwy 168, Lakeshore,CA",Lakeshore,CA ,-119.153706,37.236429,(559) 233-2500
Snow Summit,"880 Summit Blvd, Big Bear Lake,CA",Snow Summit,CA ,-116.888738,34.236765,(909) 866-5766
Snow Valley Ski Resort,"35100 Hwy 18, Running Springs,CA",Running Springs,CA ,-117.03716,34.22489,(909) 867-2751
Snowcrest,"7930 Mt Baldy Rd, Mt Baldy,CA",Snowcrest,CA ,-116.87462,34.24069,(909) 985-3012
Soda Springs,"PO Box 39, Truckee,CA",Soda Springs,CA ,-120.1822,39.3282,(530) 426-3901
Stover Mountain,"Intersection of Hwys 36 and 89, Chester,CA",Chester,CA ,-121.288678,40.290906,(530) 258-3987
Sugar Bowl,"629 Sugar Bowl Rd, Norden,CA",Norden,CA ,-120.333237,39.305333,(530) 426-9000
Tahoe Donner Downhill,"11509 Northwoods Blvd, Truckee,CA",Truckee,CA ,-120.257215,39.354906,(530) 587-9444
Arapahoe Basin Ski Area,"28194 US Hwy 6, Dillon,CO",Dillon,CO ,-105.872179,39.642584,(888) 272-7246
Arapahoe Basin Ski Area,"Near Loveland,CO",Keystone,CO ,-106.11011,39.61679,(970) 496-7077
Aspen Highlands,"PO Box 1248, Aspen,CO",Aspen,CO ,-106.85757,39.18243,(970) 925-1220
Aspen Mountain,"PO Box 1248, Aspen,CO",Aspen,CO ,-106.82512,39.16761,(970) 925-1220
Aspen Snowmass,"PO Box 1248, Aspen,CO",Aspen,CO ,-106.82281,39.19143,(970) 925-1220
Beaver Creek Resort,"PO Box 1595, Avon,CO",Vail,CO ,-106.51681,39.60493,(970) 476-5601
Breckenridge Ski Resort,"PO Box 1058, Breckenridge,CO",Summit County,CO ,-106.04719,39.48221,(970) 453-5000
Buttermilk,"PO Box 1248, Aspen,CO",Aspen,CO ,-106.87067,39.1988,(970) 925-1220
Copper Mountain Resort,"209 Ten Mile Circle, Copper Mountain,CO",Summit County,CO ,-106.150827,39.50148,(970) 968-2882
Crested Butte Mountain Resort,"12 Snowmass Rd, Mt Crested Butte,CO",Gunnison County,CO ,-106.98576,38.87017,(970) 349-2333
Cuchara Mountain Resort,"946 Panadero Ave, Cuchara,CO",Cuchara,CO ,-105.124642,37.349555,(719) 742-3163
Durango Mountain Resort,"1 Skier Place, Durango,CO",Durango,CO ,-107.81408,37.61299,(800) 982-6103
Echo Mountain Park,"19285  Hwy 103, Idaho Springs,CO",Idaho Springs,CO ,-105.518603,39.684449,(303) 325-7347
Eldora Mountain Resort,"PO Box 1697 , Nederland,CO",Boulder,CO ,-105.58489,39.93775,(303) 440-8700
Hesperus Ski Area,"US Hwy 160, Hesperus,CO",Hesperus,CO ,-108.054869,37.299129,(970) 259-3711
Howelsen Hill Ski Area,"137 10th St, Steamboat Springs,CO",Steamboat Springs,CO ,-106.83784,40.48348,(970) 879-2043
Kendall Mountain,"1 Kendall Pl, Silverton,CO",Silverton,CO ,-107.656401,37.811222,(970) 387-182
Keystone Resort,"PO Box 38, Keystone,CO",Keystone,CO ,-106.9613,40.29954,(970) 496-2316
Loveland Ski Area,"I 70 Exit 216, Georgetown,CO",Georgetown,CO ,-105.70039,39.70618,(303) 571-5580
Monarch,"23715 W Hwy 50, Monarch,CO",Durango,CO ,-106.331612,38.512811,(888) 996-SNOW
Powderhorn,"48338 Powderhorn Rd, Mesa,CO",Mesa,CO ,-108.151537,39.069956,(970) 268-5700
Silverton Mountain,"PO Box 654, Silverton,CO",Silverton,CO ,-107.67891,37.76241,(970) 387-5706
Ski Cooper,"US Rt 24, Leadville,CO",Leadville,CO ,-106.301963,39.360301,(719) 486-2277
Snowmass,"PO Box 896, Leadville,CO",Aspen,CO ,-106.98486,39.32853,(970) 925-1220
SolVista,"1000 Village Rd, Granby,CO",Granby,CO ,-105.899775,40.048809,(888) 850-4615
Steamboat Ski Resort,"2305 Mount Werner Circle, Steamboat Springs,CO",Steamboat,CO ,-106.82659,40.48028,(970) 879-6111
Sunlight,"10901 CR 117, Glenwood Springs,CO",Glenwood Springs,CO ,-107.336306,39.398631,(970) 945-7491
Telluride Ski Resort,"565 Mountain Village Blvd, Telluride,CO",Telluride,CO ,-107.81087,37.93816,(866) 888-7179
Vail,"Vail,CO",Vail,CO ,-106.38263,39.64499,(970) 476-5601
Winter Park Resort,"PO Box 36, Winter Park,CO",Winter Park,CO ,-105.78428,39.91689,(800) 979-332
Wolf Creek,"PO Box 2800, Pagosa Springs,CO",Pagosa Springs,CO ,-106.793092,37.47402,(970) 264-5639
Mohawk Mountain,"46 Great Hollow Rd, West Cornwall,CT",West Cornwall,CT ,-73.315694,41.838706,(800) 895-5222
Mount Southington,"396 Mount Vernon Rd, Plantsville,CT",Plantsville,CT ,-72.924392,41.581841,(860) 628-954
Powder Ridge,"99 Powder Hill Rd, Middlefield,CT",Middlefield,CT ,-72.735277,41.50155,(860) 349-3454
Ski Sundown,"126 Ratlum Rd, New Hartford,CT",New Hartford,CT ,-72.947803,41.88501,(860) 379-7669
Woodbury Ski Area,"785 Washington Rd, Woodbury,CT",Woodbury,CT ,-73.255061,41.589993,(203) 263-2203
Bald Mountain,"Box 49, Pierce,ID",Pierce,ID ,-115.869804,46.57061,(208) 464-2311
Bogus Basin,"2600 Bogus Basin Rd, Boise,ID",Bogus Basin,ID ,-116.102617,43.764057,(208) 332-5100
Brundage Mountain Resort,"PO Box 1062, McCall,ID",McCall,ID ,-116.158689,45.002263,(800) 888-7544
Cottonwood Butte,"Box 162, Cottonwood,ID",Cottonwood,ID ,-116.465294,46.068803,(208) 962-3624
Kelly Canyon,"PO Box 3672, Ririe,ID",Kelly Canyon,ID ,-111.630251,43.646094,(208) 538-6251
Lookout Pass,"PO Box 108, Wallace,ID",Lookout Pass,ID ,-115.696683,47.455976,(208) 744-1301
Magic Mountain,"3407 N 3300 E, Kimberly,ID",Hansen,ID ,-114.285414,42.188377,(208) 423-6221
Pebble Creek,"3340 East Green Canyon Rd, Inkom,ID",Pebble Creek,ID ,-112.149063,42.770845,(208) 775-4451
Pomerelle,"PO Box 158, Albion,ID",Albion,ID ,-113.607506,42.318226,(208) 673-5555
Rotaurm,"Hailey,ID",Hailey,ID ,-114.468848,43.436577,(208) 788-2117
Schweitzer Mountain Resort,"10000 Schweitzer Mountain Rd, Sandpoint,ID",Sandpoint,ID ,-116.620869,48.364877,(208) 263-9555
Silver Mountain,"610 Bunker Ave, Kellogg,ID",Kellogg,ID ,-116.133083,47.539727,(877) 230-2193
Snowhaven,"2600 Bogus Basin Rd, Bosie,ID",Grangeville,ID ,-116.089634,45.869164,(208) 983-3866
Soldier Mountain,"PO Box 510, Fairfield,ID",Fairfield,ID ,-114.829456,43.485932,(208) 332-5100
Sun Valley,"1 Sun Valley Rd, Sun Valley,ID",Sun Valley,ID ,-114.365979,43.670827,(208) 622-4111
Tamarack Resort,"2099 W Mountain Rd, Tamarack,ID",Tamarack,ID ,-116.114482,44.672817,(877) TAM-RESORT
Chestnut Mountain Resort,"8700 W Chestnut Rd, Galena,IL",Galena,IL ,-90.393124,42.318683,(815) 777-1320
Four Lakes Village Ski Resort,"5790 Forest View Rd, Lisle,IL",Lisle,IL ,-88.080465,41.780121,(630) 964-2551
Plumtree Ski Area,"3 200 Association Dr, Lake Carroll,IL",Lake Carroll,IL ,-89.844144,42.16925,
Raging Buffalo Snowboard Park,"Rt 31, Algonquin,IL",Algonquin,IL ,-88.294974,42.153675,(800) 895-5222
Ski Snowstar,"9500 126th St, Andalusia,IL",Andalusia,IL ,-90.744269,41.425027,(800) 383-4002
Villa Olivia,"1401 W Lake St, Bartlett,IL",Bartlett,IL ,-88.219036,42.012555,(630) 289-SNOW
Paoli Peaks,"2798 W CR 25 S, Paoli,IN",Paoli,IN ,-86.51207,38.555194,(812) 723-4696
Perfect North Slopes,"19074 Perfect Lane, Lawrenceburg,IN",Lawrenceburg,IN ,-84.886602,39.148055,(513) 381-7517
Pines Peak Family Ski Resort,"674 North Meridian, Valparaiso,IN",Valparaiso,IN ,-87.06661,41.531242,(219) 477-5993
Mount Crescent Ski Resort,"PO Box 69, Crescent,I|A",Honey Creek,IA ,-95.85587,41.391088,(712) 545-3850
Riverside Hills Ski Resort,"Hwy 4 South, Estherville,IA",Estherville,IA ,-94.824697,43.382114,
Seven Oaks Recreation Area,"1086 222nd Dr, Boone,IA",Boone,IA ,-93.95383,42.031167,(515) 432-9457
Sleepy Hollow,"4051 Dean Ave, Des Moines,IA",Des Moines,IA ,-93.533128,41.589668,(515) 262-4100
Sundown Mountain,"16991 Ashbury, Dubuque,IA",Dubuque,IA ,-90.819997,42.515569,(563) 556-6676
Sunset Ski Area,"1066 500Th Ave, Montezuma,IA",Montezuma,IA ,-92.573246,41.566535,(641) 623-3456
Baker Mountain,"Rt 201, Bingham,ME",Bingham,ME ,-69.905586,45.084923,(207) 672-5580
Bauneg Beg Ski Trails,"North Berwick,ME",Sanford,ME ,-70.781452,43.394462,
Big Rock,"Graves Rd, Mars Hill,ME",Mars Hill,ME ,-67.829373,46.522211,(207) 425-6711
Big Squaw Mounatin,"Rt 15, Greenville,ME",Greenville,ME ,-69.605373,45.424096,(207) 695-1000
Black Mountain of Maine,"39 Glover Re, Rumford,ME",Rumford,ME ,-70.61399,44.577017,(207) 364-8977
Camden Snowbowl,"PO Box 1207, Camden,ME",Camden,ME ,-69.133541,44.21648,(207) 236-3438
Eaton Mountain,"89 Lambert Rd, Skowhegan,ME",Skowhegan,ME ,-69.61817,44.768748,(207) 474-2666
Kents Hill,"1066 500th Ave, Montezuma,ME",Kents Hill,ME ,-70.000145,44.404793,(207) 685-4914
Lost Valley,"200 Lost Valley Rd, Auburn,ME",Auburn,ME ,-70.280479,44.134446,(207) 784-1561
Mount Abram,"308 Howe Hill Rd, Greenwood,ME",Greenwood,ME ,-70.70624,44.380473,(207) 875-5000
Mount Jefferson Ski Area,"Lee,ME",Lee,ME ,-68.28249,45.358749,(207) 738-2377
New Hermon Mountain,"Box 3347, Hermon,ME",Hermon,ME ,-68.95676,44.78112,(207) 848-5192
Pinnicle Ski Club,"Waverly Ave, Pittsfield,ME",Pittsfield,ME ,-69.381794,44.793285,(207) 487-6908
Saddleback,"976 Saddleback Mountain Rd, Rangeley,ME",Rangeley,ME ,-70.52779,44.945903,(207) 864-5671
Seacoast Snow Park,"Rt 302, North Windham,ME",Windham,ME ,-70.452172,43.853009,(207) 892-5952
Shawnee Peak,"119 Mountain Rd, Bridgton,ME",Bridgton,ME ,-70.814804,44.058671,(207) 647-8444
Sugarloaf,"5092 Access Rd, Carrabassett Valley,ME",Carrabassett Valley,ME ,-70.310565,45.054858,(207) 237-2000
Sunday River,"PO Box 450, Bethel,ME",Bethel,ME ,-70.855006,44.473605,(207) 824-3000
Titcomb Mountain,"PO Box 138, West Farmington,ME",Farmington,ME ,-70.170467,44.649907,(207) 778-9031
Wisp at Deep Creek Mountain Resort,"296 Marsh Hill Rd, McHenry,MD",McHenry,MD ,-79.371303,39.54692,(301) 387-4911
Berkshire East,"PO Box 727 South River Rd, Charlemont,MA",Charlemont,MA ,-72.877808,42.622596,(413) 339-6617
Blandford,"41 Nye Brook Rd, Blandford,MA",Blandford,MA ,-72.910449,42.195299,(413) 848-2860
Blue Hills,"4001 Washington St, Canton,MA",Saint Canton,MA ,-71.119179,42.215439,(781) 828-8171
Bousquet,"101 Dan Fox Drive, Pittsfield,MA",Pittsfield,MA ,-73.276427,42.419306,(413) 442-8316
Jericho Ski Area,"591 Brigham St, Marlborough,MA",Marlborough,MA ,-71.559049,42.329755,(508) 460-3718
Jiminy Peak,"37 Corey Rd, Hancock,MA",Hancock,MA ,-73.290032,42.555702,(413) 738-5500
Mount Greylock Ski Club,"285 Roaring Brook Rd, Williamstown,MA",South Williamstown,MA ,-73.214398,42.634315,(413) 445-7887
Nashoba Valley,"Nashoba Valley Ski Area, Westford,MA",Westford,MA ,-71.444703,42.542653,(978) 692-3033
Otis Ridge,"Rt 23, Otis,MA",Otis,MA ,-73.098556,42.19657,(413) 269-4444
Pine Ridge Snow Park,"377 Stetson Rd, Barre,MA",Barre,MA ,-72.103023,42.399866,(866) 355-6446
Ski Bradford,"South Cross Rd, Haverhill,MA",Haverhill,MA ,-71.056349,42.745747,(866) 644-Snow
Ski Butternut,"380 State Rd [Rt 23], Great Barrington,MA",Great Barrington,MA ,-73.31893,42.183694,(413) 528-2000
Ski Ward,"1000 Main St, Shrewsbury,MA",Shrewsbury,MA ,-71.682678,42.302333,(508) 842-6346
Wachusett Mountain,"499 Mountain Rd, Princeton,MA",Princeton,MA ,-71.886156,42.503409,(800) SKI-1234
Al Quaal,"501 Poplar St, Ishpeming,MI",Ishpeming,MI ,-87.691313,46.544348,(906) 486-6181
Alpine Valley,"6775 East Highland Rd, White Lake,MI",White Lake,MI ,-83.522486,42.652808,(248) 887-4183
Apple Mountain Ski Resort,"4519 N River Rd, Freeland,MI",Freeland,MI ,-84.041854,43.414797,(517) 781-170
Big Powderhorn Mountain Snow Ski Resort,"N11375 Powderhorn Rd, Bessemer,MI",Bessemer,MI ,-90.089965,46.50882,(906) 932-4838
Big Valley,"Newberry,MI",Newberry,MI ,-85.5181,46.662878,(906) 293-3171
Bittersweet,"600 River Road, Otsego,MI",Otseto,MI ,-85.758123,42.467597,(269) 694-2032
BlackJack Ski Resort,"N11251 Blackjack Rd, Bessemer,MI",Bessemer,MI ,-89.997442,46.504796,(906) 229-5115
Boyne Highlands,"600 Highland Dr, Harbor Springs,MI",Harbor Springs,MI ,-84.932539,45.470057,(800) GO-BOYNE
Boyne Mountain,"1 Boyne Mountain Rd, Boyne Falls,MI",Boyne Falls,MI ,-84.92694,45.162708,(800) GO-BOYNE
Caberfae Peaks,"Caberfae Rd, Cadillac,MI",Cadillac,MI ,-85.71925,44.245543,(231) 862-3000
Cannonsburg Ski Area,"6800 Cannonsburg Rd, Belmont,MI",Cannonsburg,MI ,-85.500674,43.054286,(616) 874-6711
Crystal Mountain,"12500 Crystal Mountain Dr, Thompsonville,MI",Thompsonville,MI ,-85.990758,44.519924,(800) 968-7686
Crystella Ski Hill,"410 Superior Falls Ave, Crystal Falls,MI",Crystal Falls,MI ,-88.321276,46.103459,(906) 875-3212
Gladstone Sports Park,"N Bluff Dr, Gladstone,MI",Gladstone,MI ,-87.038036,45.859735,(906) 428-9130
Hanson Hills,"PO Box 361, Grayling,MI",Grayling,MI ,-84.753494,44.64568,(888) 876-2196
Hickory Hills,"2000 Randolph, Traverse City,MI",Traverse City,MI ,-85.665564,44.768729,(231) 947-8566
Indianhead Mountain,"500 Indianhead Rd, Wakefield,MI",Wakefield,MI ,-89.970713,46.499568,(800) 346-3426
Marquette Mountain,"4501 M 53, Marquette,MI",Marquette,MI ,-87.420307,46.508559,(906) 225-1155
Missaukee Mountain,"6500 W Walker Re, Lake City,MI",Lake City,MI ,-85.23135,44.389592,(231) 839-7575
Mont Ripley,"6775 East Highland Rd, White Lake,MI",Houghton,MI ,-88.559986,47.127696,(906) 487-2340
Mount Bohemia,"100 Lac La Belle Rd, Lac La Belle,MI",Lac La Belle,MI ,-88.022525,47.388167,(906) 289-4105
Mount Brighton,"4141 Bauer Rd, Brighton,MI",Brighton,MI ,-83.811645,42.541125,(810) 229-9581
Mount Holiday,"3100 Holiday Rd, Traverse City,MI",Traverse City,MI ,-85.514022,44.743431,(231) 938-2500
Mt Holly,"13536 Dixie Hwy, Holly,MI",Holly,MI ,-83.562135,42.829462,(248) 634-8269
Mt McSauba,"McSauba Rd, Charlevoix,MI",Charlevoix,MI ,-85.24364,45.336214,(231) 547-3267
Mt Zion,"E 4946 Jackson Rd, Ironwood,MI",Clarkston,MI ,-83.338468,42.720147,(906) 932-3718
Mulligans Hollow,"1 Y Drive, Grand Haven,MI",Grand Haven,MI ,-86.2384,43.057981,(616) 842-634
Norway Mountain,"PO Box 37, Norway,MI",Norway,MI ,-87.869909,45.789101,(906) 563-9700
Nub's Nob,"500 Nubs Nob Rd, Harbor Springs,MI",Harbor Springs,MI ,-84.904554,45.472007,(231) 526-2131
Otsego Ski Club,"696 M32, Gaylord,MI",Gaylord,MI ,-84.708587,44.963858,(800) 752-5510
Pando,"8076 Belding Rd NE, Rockford,MI",Rockford,MI ,-85.468822,43.085421,(616) 874-8343
Petoskey,"1100 Winter Park Ln, Petoskey,MI",Petoskey,MI ,-84.945346,45.376173,(231) 347-2500
Pine Knob Ski Resort,"7777 Pine Knob Rd, Clarkston,MI",Clarkston,MI ,-83.369058,42.746103,(248) 625-800
Pine Mountain,"N3332 Pine Mountain Rd, Iron Mountain,MI",Iron Mountain,MI ,-88.089459,45.838973,(877) 553-PINE
Porcupine Mountains,"36606 M107, Ontonagon,MI",Ontonagon,MI ,-89.648903,46.819256,(906) 289-4105
Shanty Creek Ski Resort,"One Shanty Creek Rd, Bellaire,MI",Bellaire,MI ,-85.139669,44.945678,(231) 533-8621
Silver Mountain,"396 North State St, Saint Ignace,MI",St Ignace,MI ,-84.726516,45.854108,(906) 643-8676
Silver Ridge,"Farwell,MI",Farwell,MI ,-84.874437,43.816096,(989) 588-7220
Ski Brule,"397 Brule Mountain Rd, Iron River,MI",Iron River,MI ,-88.699877,46.028945,(800) 362-7853
Skyline,"4020 Skyline Rd, Grayling,MI",Grayling,MI ,-84.690567,44.572011,(517) 275-5445
Snow Snake,"3407 East Mannsiding Rd, Harrison,MI",Harrison,MI ,-84.768681,43.966581,(517) 539-6583
Swiss Valley,"13421 Mann St, Jones,MI",Jones,MI ,-85.827316,41.954615,(269) 244-5635
The Homestead,"Wood Ridge Rd, Glen Arbor,MI",Glen Arbor,MI ,-85.961467,44.911671,(248) 887-4183
Timber Ridge,"2nd Ave, Gobles,MI",Gobles,MI ,-85.780047,42.391566,(616) 694-9449
Treetops Sylvan Resort,"3962 Wilkinson Rd, Gaylord,MI",Gaylord,MI ,-84.590667,45.036145,(888) TREETOPS
Tyrolean Hills,"4250 Deer Trail, Gaylord,MI",Gaylord,MI ,-84.684925,45.02737,(989) 732-6551
Afton Alps,"6600 Peller Ave S, Hastings,MN",Hasting,MN ,-92.790866,44.853617,(800) 328-1328
Andes Tower Hills,"4505 Andes Rd SW, Kensington,MN",Kensington,MN ,-95.631567,45.851205,(877) 542-6337
Buck Hill,"15400 Buck Hill Road, Burnsville,MN",Burnsville,MN ,-93.283223,44.724517,(952) 435-7174
Buena Vista,"19276 Lake Julia Dr NW, Bemidji,MN",Bemidji,MN ,-94.917809,47.658236,(218) 243-2231
Chester Bowl,"1810 E Skyline Pkwy, Duluth,MN",Duluth,MN ,-92.094126,46.813552,(218) 724-9832
Coffee Mill,"99 Coulee Way, Wabasha,MN",Wabasha,MN ,-92.043445,44.365086,(651) 565-2777
Giants Ridge,"6373 Wynne Creek Drive, Biwabik,MN",Biwabik,MN ,-92.302274,47.575605,(218) 865-4143
Hyland,"8800 Chalet Rd, Minneapolis,MN",Minneapolis,MN ,-93.36314,44.843491,(763) 694-7800
Lutsen Mountains,"371 Ski Hill Rd, Lutsen,MN",Lutsen,MN ,-90.715036,47.653656,(218) 663-7281
Mount Kato,"20461 State Hwy 66, Mankato,MN",Mankato,MN ,-94.033386,44.133262,(800) 668-5286
Powder Ridge,"15015 93rd Ave, Kimball,MN",Kimball,MN ,-94.305525,45.342711,(320) 398-7200
Ski Gull,"9898 County 77 SW, Nisswa,MN",Nisswa,MN ,-94.377891,46.447577,(218) 963-4353
Spirit Mountain,"9500 Spirit Mountain Pl, Duluth,MN",Duluth,MN ,-92.218596,46.721391,(800) 624-6377
Steeplechase,"59468 423rd Ave, Mazeppa,MN",Mazeppa,MN ,-92.51422,44.244906,(507) 843-3000
Welch Village,"26685 Count 7 Blvd, Welch,MN",Welch,MN ,-92.729009,44.560904,(651) 258-4567
Wild Mountain,"37200 Wild Mountain Rd, Taylors Falls,MN",Taylor Falls,MN ,-92.704585,45.488089,(651) 257-3550
Hidden Valley Ski Area,"17409 Hidden Valley Dr, Wildwood,MO",Weston,MO ,-94.971284,39.467714,(636) 938-6999
Snow Creek,"1 Snow Creek Dr, Weston,MO",Weston,MO ,-94.97203,39.468237,(816) 640-2200
Bear Paw Ski Bowl,"PO Box 1, Rudyard,MT",Havre,MT ,-109.670039,48.164547,(406) 265-8404
Big Mountain,"PO Box 1400, Whitefish,MT",Whitefish,MT ,-114.355867,48.483009,(406) 862-1900
Big Sky Resort,"1 Lone Mountain Trail, Big Sky,MT",Big Sky,MT ,-111.305901,45.261425,(406) 995-5000
Blacktail Mountain,"PO Box 1090, Lakeside,MT",Lakeside,MT ,-114.212072,47.997655,(406) 844-999
Bridger Bowl,"15795 Bridger Bowl Canyon Rd, Bozeman,MT",Bozeman,MT ,-110.896767,45.817211,(406) 587-2111
Discovery Basin,"PO Box 221, Anaconda,MT",Anaconda,MT ,-113.239472,46.249416,(406) 563-2184
Great Divide,"385 Belmont Drive, Marysville,MT",Marysville,MT ,-112.312217,46.752514,(406) 443-540
Lost Trail,"9485 US Hwy 93 S, Sula,MT 59871, (406) 821-3211",Sula,MT ,-113.952,45.692,(406) 821-3211
Marshall Mountain,"5250 Marshall Canyon Rd, Missoula,MT",Missoula,MT ,-113.907134,46.9198,(406) 258-6000
Maverick Mountain,"1600 Maverick Mountain Rd, Polaris,MT",Polaris,MT ,-113.127824,45.433418,(406) 834-3454
Montana Snowbowl,"1700 Snowbowl Road, Missoula,MT",Missoula,MT ,-113.999275,47.014274,(406) 549-9777
Moonlight Basin,"1020 Hwy 64, Big Sky,MT",Big Sky,MT ,-111.364974,45.295667,(406) 993-6000
Red Lodge Mountain,"PO Box 750, Red Lodge,MT",Red Lodge,MT ,-109.335489,45.190997,(406) 446-3900
Showdown,"2850 US Hwy 89 S, Neihart,MT",Neihart,MT ,-110.742984,46.95736,(406) 771-1300
Teton Pass,"PO Box 1354, Choteau,MT",Choteau,MT ,-112.805252,47.929046,(406) 265-8404
Turner Mountain,"PO Box 940, Libby,MT",Libby,MT ,-115.630114,48.605269,(406) 293-4317
Whitefish Mountain Resort,"PO Box 1400 Whitefish,MT",Whitefish,MT ,-114.357159,48.482937,(406) 862-2900
Diamond Peak,"1210 Ski Way, Incline Village,NV",Incline Village,NV ,-119.923372,39.253641,(775) 832-1177
Elko Snobowl,"600 Idaho St, Elko,NV",Elko,NV ,-115.818888,40.908653,(775) 738-7135
Las Vegas Ski and Snowboard,"Hwy 156 Lee Canyon, Las Vegas,NV",Las Vegas,NV ,-115.678787,36.304093,(702) 385-2754
Mount Rose Ski Tahoe,"22222 Mt Rose Hwy, Reno,NV",Reno,NV ,-119.885183,39.329239,(800) SKI-ROSE
Arrowhead,"Robert A Easter Way, Claremont,NH",Claremont,NH ,-72.333114,43.363407,(603) 542-2416
Attitash,"PO Box 308, Bartlett,NH",Barlett,NH ,-71.231572,44.08247,(603) 374-2368
Black Mountain,"On Rt 16B, Black Mountain,NH",Black Mountain,NH ,-71.944701,44.111581,(603) 383-4490
Bretton Woods,"Rt 302, Bretton Woods,NH",Bretton Woods,NH ,-71.458188,44.26081,(603) 278-3320
Cannon Mountain,"Franconia Notch State Park,NH",Franconis,NH ,-71.687638,44.170439,(603) 823-8800
Cranmore Mountain Resort,"1 Skimobile Rd North, Conway,NH",North Conway,NH ,-71.110601,44.05692,(603) 356-5543
Crotched Mountain,"615 Francestown Rd, Bennington,NH",Bennington,NH ,-71.878055,43.01204,(603) 588-3668
Dartmouth Skiway,"39 Grafton Tpke, Lyme,NH",Lyme,NH ,-72.099996,43.789219,(603) 795-2143
Granite Gorge,"341 Rt 9, Kenne/Roxbury,NH",Keene/Roxbury,NH ,-72.212942,42.970947,(603) 358-5000
Gunstock Mountain Resort,"Rt 11 A, Gilford,NH",Gilford,NH ,-71.3642,43.540805,(603) 542-2416
King Pine,"1251 Eaton Rd, East Madison,NH",East Madison,NH ,-71.088424,43.869623,(603) 367-8896
Loon Mountain,"60 Loon Mountain Rd, Lincoln,NH",Lincoln,NH ,-71.633332,44.056129,(603) 745-8111
McIntyre Ski Area,"Chalet Court, Manchester,NH",Manchester,NH ,-71.443012,43.006538,(603) 624-6571
Mount Sunapee,"Rt 103, Newbury,NH",Newbury,NH ,-72.07961,43.331654,(603) 763-2356
Pats Peak,"PO Box 2448, Henniker,NH",Henniker,NH ,-71.797341,43.163664,(888) 728-7732
Ragged Mountain,"620 Ragged Mountain Rd, Danbury,NH",Danbury,NH ,-71.841456,43.485211,(603) 768-3600
Storrs Hill,"Lebanon,NH",Lebanon,NH ,-72.25305,43.636354,(603) 448-4409
Tenney Mountain,"151 Tenney Mountain Rd, Plymouth,NH",Plymouth,NH ,-71.763855,43.747395,(603) 536-4125
The Balsams Wilderness,"1000 Cold Spring Rd, Dixville Notch,NH",Dixville Notch,NH ,-71.324548,44.861128,(877) 225-7267
Waterville Valley,"Robert A Easter Way, Claremont,NH",Waterville Valley,NH ,-71.526967,43.96506,(603) 236-8311
Whaleback Mountain,"160 Whaleback Mtn Rd, Enfield,NH",Enfield,NH ,-72.180935,43.601741,(603) 448-1489
Wildcat Mountain,"Rt 16 Pinkham Notch, Jackson,NH",Jackson,NH ,-71.239697,44.264641,(603) 466-3326
Campgaw Mountain Coverage,"200 Canpgaw Rd, Mahwah,NJ",Mahwah,NJ ,-74.194901,41.058539,(201) 327-7800
Hidden Valley,"44 Breakneck Rd, Vernon,NJ",Vernon,NJ ,-74.480764,41.187369,(973) 764-4200
Mountain Creek Resort,"200 Canpgaw Rd, Mahwah,NJ",Vernon,NJ ,-74.505252,41.191533,(973) 827-2000
Angel Fire,"71 Valley Rd, Angel Fire,NM",Angel Fire,NM ,-105.272262,36.386844,(505) 377-6401
Pajarito,"397 Camp May Road, Los Alamos,NM",Los Alamos,NM ,-106.389816,35.895092,(505) 662-5725
Red River,"400 Pioneer Road, Red River,NM",Red River,NM ,-105.410152,36.708605,(505) 754-2223
Sandia Peak,"10 Tramway Loop NE, Albuquerque,NM",Albuquerque,NM ,-106.413331,35.207283,(505) 856-6419
Sipapu,"5224 SR 518, Vadito,NM",Vadito,NM ,-105.549373,36.154806,(800) 587-2240
Ski Apache,"1286 Ski Run Rd, Alto,NM",Alto,NM ,-105.787612,33.396468,(505) 336-4356
Ski Cloudcroft,"1920 Hwy 82, Cloudcroft,NM",Cloudcroft,NM ,-105.707758,32.951367,(503) 377-6401
Ski Santa Fe,"2209 Brothers Rd, Santa Fe,NM",Santa Fe,NM ,-105.802631,35.795817,(505) 982-4429
Taos Ski Valley,"PO Box Taos Ski Valley, Taos,NM",Taos,NM ,-105.448175,36.595189,(505) 776-2291
Belleayre Ski Center,"PO Box 313, Highmount,NY",Highmount,NY ,-74.506866,42.132233,(845) 254-5600
Bobcat,"Gladstone Hollow Rd, Andes,NY",Andes,NY ,-74.748529,42.226518,(845) 676-3143
Brantling Ski Slopes,"4015 Fishfarm Rd, Sodus,NY",Brantling,NY ,-77.065822,43.148684,(315) 331-2365
Bristol Mountain ,"5662 CR 64, Canandaigua,NY",Canandaigua,NY ,-77.402659,42.745277,(845) 254-5600
Buffalo Ski Club,"Lower East Hill Rd, Orchard Park,NY",Colden,NY ,-78.690881,42.682695,(716) 941-SNOW
Catamount Ski Area,"SR 23 East, Hillsdale,NY",Hillsdale,NY ,-73.477031,42.170035,(413) 528-1262
Cazenovia Ski Club,"5251 Rathbun Rd, Cazenovia,NY",Cazenovia,NY ,-75.852783,42.977861,(315) 637-3037
Chestnut Ridge Country Park,"6121 Chestnut Ridge Rd, Orchard Park,NY",Orchard Park,NY ,-78.747359,42.718082,(716) 858-8355
Cockaigne Ski Area,"1493 Thornton Rd, Cherry Creek,NY",Cherry Creek,NY ,-79.161188,42.265583,(716) 287-3223
Cortina Valley,"227 Clum Hill Rd, Hunter,NY",Tannersville,NY ,-74.11884,42.188895,(518) 589-6378
Dry Hill Ski Area,"CR 67, Watertown,NY",Watertown,NY ,-75.90214,43.931368,(315) 782-8584
Emery Country Park,"2084 Emery Rd, South Wales,NY",South Wales,NY ,-78.592746,42.715123,(716) 858-8355
Four Seasons,"8012 East Genesee St, Fayetteville,NY",Fayetteville,NY ,-75.972967,43.035697,(315) 637-9023
Frost Ridge,"8101 Conlon Rd, Le Roy,NY",Le Roy,NY ,-77.954656,43.020545,(716) 768-4883
Gore Mountain Ski Resort,"Peaceful Valley Rd, North Creek,NY",North Creek,NY ,-74.006462,43.671622,(518) 251-2411
Greek Peak Mountain Resort,"2000 SR 392, Cortland,NY",Cortland,NY ,-76.144217,42.507507,(800) 955-2SKI
Holiday Mountain Ski & Fun Park,"99 Holiday Mountain Rd, Monticello,NY",Monticello,NY ,-74.613329,41.628004,(845) 796-3161
Holiday Valley Ski Resort,"Rt 219 Ellicottville,NY",Ellicottville,NY ,-78.687932,42.27365,(716) 699-2345
HoliMont,"6921  Rt 242, Ellicottville,NY",Ellicottville,NY ,-78.688254,42.273364,(845) 254-5600
Hunt Hollow,"7532 CR 36, Naples,NY",Naples,NY ,-77.477001,42.644864,(585) 374-5428
Hunter Mountain,"PO Box 295, Hunter,NY",Hunter,NY ,-74.210004,42.20494,(800) 486-8376
Kissing Bridge Ski and Snowboard Resort,"Rt 240, Glenwood,NY",Glenwood,NY ,-78.652671,42.600209,(716) 592-4963
Labrador Mountain,"Rt 91, Truxton,NY",Truxton,NY ,-76.030298,42.741337,(607) 842-6204
Maple Ski Ridge,"2725 Mariaville Rd, Schenectady,NY",Schenectady,NY ,-74.031937,42.817643,(518) 381-4700
McCauley Mountain,"McCauley Mountain Ski Area, Old Forge,NY",Old Forge,NY ,-74.965736,43.697387,(315) 369-3225
Mount Peter,"PO Box 313, Highmount,NY",Warwick,NY ,-74.295747,41.247763,(845) 254-5600
Mount Pisgah,"Mt Pisgah Rd, Saranac Lake,NY",Saranac Lake,NY ,-74.125277,44.345944,(518) 891-970
Northampton Park,"304 Salmon Creek Rd, Brockport,NY",Brockport,NY ,-77.885209,43.187091,(607) 545-6511
Oak Mountain,"Elm Lake Rd, Speculator,NY",Speculator,NY ,-74.360568,43.512953,(518) 548-7311
Palttekill Mountain,"469 Plattekill Mountain Rd, Roxbury,NY",Roxbury,NY ,-74.652852,42.289332,(607) 326-3500
Peek N Peak Resort and Spa,"1405 Olde Rd, Findley Lake,NY",Findley Lake,NY ,-79.735922,42.065501,(716) 355-4141
Powder Mills Park,"154 Park Rd, Pittsford,NY",Pittsford,NY ,-77.481454,43.046845,(607) 545-6511
Ridin/Hy,"PO Box 369, Warrensburg,NY",Warrensburg,NY ,-73.739314,43.634298,(518) 494-2742
Rocking Horse Ranch,"600 Rt 44/55, Highland,NY",Highland,NY ,-74.015474,41.69279,(800) 647-2624
Royal Mountain,"PO Box 139, Caroga Lake,NY",Caroga Lake,NY ,-74.503189,43.081695,(518) 835-6445
Sawkill Family Ski Center,"167 Hill Rd, Kingston,NY",Kingston,NY ,-74.044181,41.985252,(845) 336-6977
Shu/Maker Mountain,"Rt 167, Little Falls,NY",Little Falls,NY ,-74.884466,42.999459,(315) 823-4470
Skaneateles Ski Club,"2995 Rt 174, Marietta,NY",Marietta,NY ,-76.330536,42.916149,(315) 636-8486
Snow Ridge,"Rt 26, Turin,NY",Turin,NY ,-75.420782,43.639221,(315) 348-8456
Song Mountain,"1 Song Mountain Rd, Tully,NY",Tully,NY ,-76.160419,42.77468,(315) 696-5711
Sterling Forest,"16 Sterling Lake Rd, Tuxedo,NY",Tuxedo,NY ,-74.205708,41.239317,(845) 351-2151
Swain Resort,"CR 24, Swain,NY",Swain,NY ,-77.855316,42.476699,(607) 545-6511
Thunder Ridge Ski Area,"Rt 22, Patterson,NY",Patterson,NY ,-73.585121,41.508237,(845) 878-4100
Titus Mountain,"215 Johnson Rd, Malone,NY",Malone,NY ,-74.236382,44.765615,(518) 483-3740
Toggenberg,"PO Box 162, Fabius,NY",Fabius,NY ,-75.959779,42.827013,(315) 683-5842
Tuxedo Ridge,"LLC Rt 17A, Tuxedo,NY",Tuxedo,NY ,-74.226614,41.248073,(845) 351-1122
Val Bialas City Park,"Memorial Pkwy and Oneida St, Utica,NY",Utica,NY ,-75.248257,43.084961,(315) 738-328
Villa Roma,"Fosterdale Rd, Callicoon,NY",Callicoon,NY ,-74.974763,41.76164,)914) 887-4880
West Mountain Ski Resort,"59 West Mountain Rd, Glen Falls,NY",Glens Falls,NY ,-73.730434,43.293317,(518) 793-6606
Whiteface Mountain Ski Area,"Whiteface Mountain RT 86 Wilmington,NY",Wilmington,NY ,-73.861421,44.353772,(518) 946-2223
Willard Mountain,"PO Box 65, Greenwich,NY",Greenwich,NY ,-73.516148,43.021239,(518) 692-7337
Windham Mountain Ski Resort,"PO Box 459, Windham,NY",Windham,NY ,-74.256984,42.299966,(518) 734-3000
Woods Valley,"PO Box 225, Westernville,NY",Westernville,NY ,-75.384523,43.301241,(315) 827-4721
Ski Beech,"1007 Beech Mountain Pkwy, Beech Mountain,NC",Beech Mountain,NC ,-81.878734,36.197097,(800) 438-2093
Wolf Ridge Ski Resort,"578 Valley View Circle, Mars Hill,NC",Mars Hill,NC ,-82.510271,35.955412,(828) 689-4111
Cataloochee Ski Area,"1080 Ski Lodge Rd, Maggie Valley,NC [Access only via US 19 and SR 1304 in Maggie Valley]",Maggie Valley,NC ,-83.090901,35.562541,(828) 926-285
Appalachian Ski Mountain,"940 Ski Mountain Rd, Blowing Rock,NC",Blowing Rock,NC ,-81.661668,36.174815,(828) 295-7828
Sugar Mountain Resort,"1009 Sugar Mountain Drive, Banner Elk,NC",Banner Elk,NC ,-81.85659,36.131586,(828) 898-4521
Hawksnest Resort,"2058 Slyland Drive, Seven Devils,NC",Seven Devils,NC ,-81.826196,36.142694,(828) 963-6561
Sapphire Valley,"4350 Hwy  64 West, Sapphire,NC",Sapphire,NC ,-82.983154,35.108105,(800) 722-3956
Bottineau Winter Park,"PO Box 168, Bottineau,ND",Bottineau,ND ,-100.402454,48.86624,(701) 263-4556
Frost Fire Ski Area,"PO Box 711, Walhalla,ND",Walhalla,ND ,-98.068451,48.912414,(701) 549-3600
Huff Hills,"5455 CR 80, Mandan,ND",Mandan,ND ,-100.723316,46.626881,(701) 663-6421
Alpine Valley,"10620 Mayfield Rd, Chesterland,OH",Chesterland,OH ,-81.260343,41.526538,(440) 285-2211
Boston Mills/Brandywine,"10620 Mayfield Rd, Chesterland,OH",Sagamore Hills,OH ,-81.553469,41.285202,(330) 657-2334
Clear Fork,"Sr 97, Butler,OH",Butler,OH ,-82.412237,40.593731,(419) 883-2000
Mad River Mountain,"1000 Snow Valley Rd, Zanesfield,OH",Zanesfield,OH ,-83.679264,40.317345,(800) 231-SNOW
Snow Trails,"3100 Possum Run Rd, Mansfield,OH",Mansfield,OH ,-82.500417,40.673291,(800) OHIO-SKI
Williamette Pass,"PO Box 5550, Eugene,OR",Eugene,OR ,-122.036777,43.600444,(541) 345-SNOW
Anthony Lakes,"47500 Anthony Lake Hwy, North Powder,OR",North Powder,OR ,-118.23433,44.964176,(541) 856-3277
Cat Ski Mount Bailey,"350 Resort Drive, Diamond Lake,OR",Mt Bailey,OR ,-122.137328,43.182739,(800) 733-7593
Mount Ashland,"693 Washington St, Ashland,OR",Ashland,OR ,-122.706565,42.080466,(541) 856-3277
Cooper Spur,"10755 Cooper Spur Road, Mt Hood,OR",Mt Hood,OR ,-121.604821,45.412279,(541) 352-6692
Ferguson Ridge,"47500 Anthony Lake Hwy, North Powder,OR",North Powder,OR ,-117.11251,45.282218,(541) 856-3277
Mount Hood Meadows,"8800 SE Sunnyside Rd #112N, Clackamas,OR",Mount Hood,OR ,-121.662245,45.328973,(503) 337-2222
Mount Hood Skibowl,"Government Camp, Mt Hood,OR",Mount Hood,OR ,-121.773312,45.301956,(503) 272-3206
Timberline Lodge,"Timberline Lodge,OR",Timberline Lodge,OR ,-121.711205,45.330953,(503) 622-717
Hoodoo Mountain,"Hwy 20, Sisters,OR",Sisters,OR ,-121.871588,44.408995,(541) 822-3799
Mt Bachelor Ski Resort,"13000 SW Century Dr, Bend,OR",Bend,OR ,-121.678045,44.004062,(541) 382-7888
Spout Springs,"79327 Hwy 204, Weston,OR",Weston,OR ,-118.051085,45.754968,(541) 566-320
Summit,"PO Box 459, Government Camp,OR",Mt Hood,OR ,-121.746198,45.303006,(503) 272-256
Warner Canyon,"98158 E Hwy 140, Lakeview,OR",Lakeview,OR ,-120.294418,42.236577,(541) 947-5001
Alpine Mountain,"PO Box 309, Analomink,PA",East Stroudsburg,PA ,-75.218494,41.057651,(570) 595-2150
Bear Creek Mountain Resort,"101 Doe Mountain Lane, Macungie,PA",Macungie,PA ,-75.624824,40.477486,(610) 682-7100
Big Boulder,"PO Box 1539, Blakeslee,PA",Blakeslee,PA ,-75.616437,41.064257,(570) 722-100
Blue Knob All Seasons Resort,"PO Box 247, Claysburg,PA",Claysburg,PA ,-78.562512,40.287949,(800) 458-3403
Blue Marsh,"1047 North Heidelberg Rd, Bernville,PA",Bernville,PA ,-76.114529,40.423643,(610) 488-6399
Blue Mountain Ski Area,"1660 Blue Mountain Dr, Palmerton,PA",Palmerton,PA ,-75.513715,40.822465,(610) 826-7700
Boyce Park,"675 Old Frankstown Rd, Pittsburgh,PA",Monroeville,PA ,-79.74742,40.462192,(724) 733-4656
Camelback Ski Area,"I 80 Exit 299, Tannersville,PA",Tannersville,PA ,-75.352031,41.052211,(570) 629-1661
Crystal Lake,"1716 Crystal Lake Rd, Hughesville,PA",Hughesville,PA ,-76.685542,41.358418,(570) 584-4209
Eagle Rock Resort,"1031 Valley of Lakes, Hazleton,PA",Hazleton,PA ,-76.104141,40.92347,(888) 335-8886
Elk Mountain Ski Resort,"RR2 Box 3328, Union Dale,PA",Union Dale,PA ,-75.555266,41.723153,(570) 679-4400
Hidden Valley Four Season Resort,"One Craighead Dr, Hidden Valley,PA",Hidden Valley,PA ,-79.257703,40.058862,(814) 443-8000
Jack Frost Ski Area,"PO Box 1539, Blakeslee,PA",Blakeslee,PA ,-75.652056,41.107399,(570) 722-100
Liberty Mountain Resort,"78 Country Club Trail, Carroll Valley,PA",Carroll Valley,PA ,-77.374916,39.763772,(717) 642-8282
Montage/SnO Mountain,"1000 Montage Mountain Rd, Scranton,PA",Scranton,PA ,-75.662898,41.351274,(800) GOT-SNOW
Mount Pleasant of Edinboro,"PO Box 184, Edinboro,PA",Edinboro,PA ,-80.071124,41.851336,(814) 734-1641
Mountainview Ski Area,"Edinboro Plank Rd, Washington Twp,PA",Edinboro,PA ,-80.850994,41.850994,(814) 734-1641
Mystic Mountain,"1001 LaFayette Dr, Farmington,PA",Farmington,PA ,-79.545034,39.812871,(800) 422-2736
Seven Springs Mountain Resort,"777 Waterwheel Dr, Seven Springs,PA",Seven Springs,PA ,-79.297579,40.023649,(814) 352-7777
Shawnee Mountain,"Hollow Rd, Shawnee On Delaware,PA",Shawnee on Delaware,PA ,-75.083492,41.039703,(570) 421-7231
Ski Big Bear,"196 Karl Hope Blvd, Lackawaxen,PA",Lackawaxen,PA ,-75.02302,41.521963,(570) 685-1400
Ski Denton,"5661 US 6, Coudersport,PA",Coudersport,PA ,-77.83141,41.775778,(814) 435-2115
Ski Roundtop,"925 Roundtop Rd, Lewisberry,PA",Lewisberry,PA ,-76.92738,40.109855,(717) 432-9631
Ski Sawmill,"383 Oregon Hill Rd, Morris,PA",Morris,PA ,-77.289663,41.518995,(570) 353-7521
Ski Snowpeak,"PO Box 309, Analomink,PA",Analomink,PA ,-75.218584,41.057387,(541) 345-SNOW
Sno Mountain Ski Resort,"1000 Montage Mountain Rd, Scranton,PA",Scranton,PA ,-75.663964,41.350888,(800) GOT-SNOW
Spring Mountain,"757 Spring Mount Rd, Spring Mount,PA",Spring Mount,PA ,-75.449884,40.272789,(888) 305-5044
Tanglwood,"PO Box 309, Analomink,PA",Tafton,PA ,-75.163549,41.412267,(570) 226-SNOW
Tussey Mountain Ski Area,"301 Bear Meadows Rd, Boalsburg,PA",Boalsburg,PA ,-77.754775,40.769137,(814) 466-6266
Whitetail Ski Resort,"13805 Blairs Valley Rd, Mercersburg,PA",Mercersburg,PA ,-77.932247,39.741686,(717) 328-9400
Willowbrook,"RR 2, Belle Vernon,PA",Belle Vernon,PA ,-79.81766,40.147057,(724) 872-7272
Mont Calm,"3294 Rue Park, Rawdon,QC",Rawdon,QC ,-76.5945,41.759166,(450) 834-3139
Yawgoo Valley,160 Yawgoo Valley Rd,Exeter,RI ,-71.526889,41.517726,(401) 294-3802
Dear Mountain,"PO Box 622, Lead,SD",Lead,SD ,-103.817917,44.308661,(605) 584-3230
Great Bear,"2401 W 49th St, Sioux Falls,SD",Sioux Falls,SD ,-96.66514,43.578246,(605) 367-4309
Terry Park,"21120 Stewart Slope Rd, Leak,SD",Lead,SD ,-103.840211,44.335263,(605) 722-SNOW
Ober Gatlinburg Ski Resort,"1001 Parkway, Gatlinburg,TN",Gatlinburg,TN ,-83.557565,35.703766,(865) 436-5423
Alta,"PO Box 8007, Alta,UT",Alta,UT ,-111.637058,40.590117,(801) 359-1078
Beaver Mountain,"40000 East Hwy 89, Garden City,UT",Garden City,UT ,-111.539793,41.968734,(435) 753-921
Brian Head,"329 South Hwy 143, Brian Head,UT",Brian Head,UT ,-112.848219,37.692914,(435) 677-2035
Brighton,"12601 E Big Cottonwood Canyon Rd, Brighton,UT",Brighton,UT ,-111.58463,40.598256,(800) 873-5512
Deer Valley Resort,"2250 Deer Valley Drive S, Park City,UT",Park City,UT ,-111.488886,40.620613,(435) 649-1000
Elk Meadows,"PO Box 8007, Alta,UT",Alta,UT ,-111.638203,40.588025,(801) 359-1078
Park City Mountain Resort,"1310 Lowell Ave, Park City,UT",Park City,UT ,-111.508386,40.653304,(435) 649-8111
Powder Mountain,"8000 N 5100 East SR 158, Eden,UT",Paradise,UT ,-111.781368,41.379935,(801) 745-3772
Snowbasin,"3925 E Snowbasin Rd, Huntsville,UT",Huntsville,UT ,-111.857409,41.216512,(888) 437-5488
Snowbird,"Hwy 210, Snowbird,UT",Snowbird,UT ,-111.652087,40.58262,(800) 232-9542
Solitude Mountain Resort,"12000 Big Cottonwood Canyon, Solitude,UT",Solitude,UT ,-111.597904,40.623959,(801) 534-1400
Sundance,"RR 3 Box A1, Sundance,UT",Provo,UT ,-111.57777,40.391331,(801) 225-4107
The Canyons,"4000 The Canyons Resort Dr, Park City,UT",Park City,UT ,-111.553374,40.68401,(435) 649-5400
Utah Winter Sports Park,"3419 Olympic Pkwy, Park City,UT",Park City,UT ,-111.562727,40.711808,(801) 745-1078
Wolf Mountain,"3567 Nordic Valley Way, Eden,UT",Eden,UT ,-111.864677,41.309973,(801) 745-3511
Ascutney Mountain Resort,"485 Hotel Rd, Brownsville,VT",Brownsville,VT ,-72.466273,43.464756,(802) 484-7711
Bear Creek Mountain,"100 Roundtop Rd, Plymouth, VT",Plymouth,VT ,-72.746276,43.536819,(802) 672-4242
Bolton Valley,"4302 Bolton Valley Access Rd, Bolton Valley,VT",Bolton Valley,VT ,-72.98167,44.39622,(802) 434-7669
Bromley Mountain,"3984 Vermont Rt 11, Peru,VT",Peru,VT ,-72.934785,43.213157,(802) 824-5522
Burke Mountain,"223 Sherburn Lodge Rd, East Burke,VT",East Burke,VT ,-71.916496,44.587725,(802) 626-7300
Cochran,"910 Cochran Rd, Richmond,VT",Richmond,VT ,-72.98192,44.396404,(802) 434-2479
Hawk Inn and Mountain Resort,"Rt 100, Plymouth,VT",Plymouth,VT ,-72.746224,43.536698,(800) 685-4295
Haystack Club,"125 Ski Area Access Rd, Wilmington,VT",Wilmington,VT ,-72.893567,42.968611,(802) 464-100
Jay Peak,"4850 SR 242, Jay,VT",Jay,VT ,-72.50471,44.938578,(802) 484-7711
Killington,"4763 Killington Rd, Killington,VT",Killington,VT ,-72.798681,43.627431,(802) 422-3333
Lyndon Outing Club,"Hill St and Lily Pond Rd, Lyndonville,VT",Lyndonville,VT ,-71.987033,44.532878,(802) 626-8465
Mad River Glen,"PO Box 1089, Waitsfield,VT",Waitsfield,VT ,-72.916144,44.202265,(802) 496-3551
Magic Mountain,"PO Box 396, Londonderry,VT",Londonderry,VT ,-72.773011,43.202529,(802) 824-5645
Middlebury College Snowbowl,"Middlebury College Snowbowl, Middlebury,VT",Middlebury,VT ,-72.958026,43.93949,(802) 388-4356
Mount Snow,"N Access Rd, West Dover,VT",West Dover,VT ,-72.888279,42.970775,(800) 245-SNOW
Okemo Mountain,"77 Okemo Ridge Rd, Ludlow,VT",Ludlow,VT ,-72.71652,43.401375,(802) 228-4041
Quechee Lakes,"Rt 4 East and Waterman Hill Rd, Killington,VT",White River Junction,VT ,-72.421112,43.64681,(888) 592-2224
Pico Mountain,"4763 Killington Rd, Killington,VT",Killington,VT ,-72.803117,43.617523,(866) 667-PICO
Smuggler's Notch,"4323 Vermont Rt 108 S, Smugglers' Notch,VT",Smuggler's Notch,VT ,-72.77461,44.572165,(802) 644-8851
Stowe Mountain,"Rt 108 N, Stowe,VT",Stowe,VT ,-72.784609,44.529665,(802) 253-3000
Stratton Mountain,"RR 1 Box 145, Sratton Mountain,VT",Stratton Mountain,VT ,-72.892452,43.135556,(800) STRATTON-
Sugarbush,"1840 Sugarbush Access Rd, Warren,VT",Warren,VT ,-72.892093,44.136596,(802) 583-6300
Suicide Six,"14 The Green, Woodstock,VT",Woodstock,VT ,-72.54391,43.664898,(802) 457-6661
Twin Farms,"PO Box 115, Barnard,VT",Barnard,VT ,-72.58924,43.72552,(800) 894-6327
Bryce Ski Resort,"1982 Fairway Dr, Basye,VA",Basye,VA ,-78.766077,38.818442,(540) 856-2121
Massanutten Ski Resort,"Rt 644 and Rt 33, Massanuttem,VA",McGaheysville,VA ,-78.75499,38.404553,(540) 289-4954
The Homestead,"1766 Homestead Dr, Hot Springs,VA",Hot Springs,VA ,-79.824586,37.997381,(540) 839-7800
Wintergreen Resort,"Rt 664, Wintergreen,VA",Wintergreen,VA ,-78.935598,37.915562,(804) 325-2200
49 Degrees North Mountain Resort,"PO Box 166, Chewelah,WA",Chewelah,WA ,-117.563682,48.302322,(866) 376-4949
Badger Mountain Ski Area,"Waterville,WA",Waterville,WA ,-120.12951,47.612589,(509) 745-8273
Crystal Mountain,"33914 Crystal Mountain Blvd, Crystal Mountain,WA",Crystal Mountain,WA ,-121.472953,46.938464,(360) 663-2265
Echo Valley Family Ski Area,"PO Box 99, Chelan,WA",Manson,WA ,-120.054376,47.935892,(509) 682-4002
Hurricane Ridge,"136 E 8th St, Port Angeles,WA",Port Angeles,WA ,-123.496229,47.969951,(360) 457-2879
Leavenworth Winter Sports Club,"PO Box, Leavenworth,WA",Leavenworth,WA ,-120.668279,47.613832,(509) 548-5477
Loup Loup Ski Bowl,"PO Box 1686, Omak,WA",Twisp,WA ,-119.90987,48.392737,(509) 826-2720
Mission Ridge,"7500 Mission Ridge Rd, Wenatchee,WA",Wenatchee,WA ,-120.428749,47.275399,(509) 663-6543
Mount Baker,"1019 Iowa St, Bellingham,WA",Bellingham,WA ,-121.681837,48.863019,(360) 734-6771
Mount Spokane Ski Area,"29500 N Mt Spokane Park Dr, Mead,WA",Mead,WA ,-117.100164,47.903694,(509) 238-2220
Sitzmark,"PO Box 934, Tonasket,WA",Tonasket,WA ,-119.165407,48.861556,(509) 486-2700
Ski Bluewood Resort,"PO Box 88, Dayton,WA",Dayton,WA ,-117.850948,46.082674,(509) 382-4725
Steven's Pass Ski Area,"Summit Stevens Pass US Hwy 2, Skykomish,WA",Skykomish,WA ,-121.092852,47.744734,(206) 812-4510
The Summit at Snoqualmie,"1001 SR 906, Snoqualmie Pass,WA",Snoqualmie Pass,WA ,-121.412896,47.409699,(425) 434-Snow
White Pass,"PO Box 3030, White Pass,WA",Naches,WA ,-121.390096,46.637438,(509) 672-3101
Alpine Lake,"700 West Alpine Dr, Terra Alta,WV",Terra Alta,WV ,-79.500664,39.456428,(304) 789-2481
Canaan Valley Resort,"Box 330, Davis,WV",Davis,WV ,-79.440007,39.008803,(304) 866-4121
Oglebay,"Rt 88 N, Wheeling,WV",Wheeling,WV ,-80.660507,40.099562,(304) 243-4000
Snowshoe Mountain,"10 Snowshoe Dr, Snowshoe,WV",Snowshoe,WV ,-79.99641,38.410573,(304) 572-1000
Timberline Four Season Resort,"700 West Alpine Dr, Terra Alta,WV",Davis,WV ,-79.399205,39.0429,(800) 766-9464
Winterplace Ski Resort,"100 Old Flat Top Montain Rd, Ghent,WV",Ghent,WV ,-81.122189,37.601013,(800) 607-Snow
Alpine Valley Resort,"W2501 CR D, Elkhorn,WI",Elkhorn,WI ,-88.383222,42.742318,(800) 227-9395
Ausblick,"N 6395 Maryhill Rd, Sussex,WI",Sussex,WI ,-88.264269,43.134868,(262) 246-3090
Badlands Recreation,"772 Kinney Rd, Hudson,WI",Hudson,WI ,-92.641333,44.972292,(715) 386-1856
Bruce Mound Ski Area,"Bruce Mound Ave, Merrillan,WI",Merrillan,WI ,-90.782211,44.447436,(715) 743-2296
Camp 10 Ski Area,"Camp 10 Rd,Tomahawk,WI",Rhinelander,WI ,-89.500903,45.550354,(715) 362-506
Cascade Mountain,"Cascade Mountain Rd, Portage,WI",Portage,WI ,-89.514987,43.502594,(800) 992-2SKI
Christie Mountain Ski Area,"W13755 Hwy O, Bruce,WI",Bruce,WI ,-91.381973,45.510753,(715) 868-7800
Christmas Mountain Village,"5944 Christmas Mountain Rd, Wisconsin Dells,WI",Wisconsin Dells,WI ,-89.861404,43.609311,(608) 253-1000
Crystal Ridge Ski Area,"7900 W Crystal Ridge, Franklin,WI",Franklin,WI ,-88.015155,42.919587,(414) 529-7676
Devil's Head Resort,"S6330 Bluff Rd, Merrimac,WI",Merrimac,WI ,-89.625357,43.417988,(800) 472-6670
Granite Peak at Rib Mountain,"3605 North Mountain Rd, Wausau,WI",Granite Peak at Rib Mountain,WI,-89.682615,44.929147,(715) 845-2846
Hidden Valley,"I 43 Exit 164, Manitowoc,WI",Manitowoc,WI ,-87.708933,44.097825,(920) 863-1450
Kettlebowl,"1633 Neva Rd, Antigo,WI",Antigo,WI ,-89.146915,45.153129,(888) 526-4523
Keyes Peak Ski Area,"Hwy 101 4 miles south, Florence,WI",Florence,WI ,-88.314244,45.866153,(715) 528-3228
Little Switzerland,"105 Cedar Creek Rd, Slinger,WI",Slinger,WI ,-88.279865,43.338285,(262) 644-5020
Mont du Lac,"3125 Mont du Lac Dr, Superior,WI",Superior,WI ,-92.284308,46.65267,(218) 626-3797
Mount Ashwabay,"32525 Ski Hill Rd, Bayfield,WI",Bayfield,WI ,-90.893555,46.777968,(715) 779-3227
Mt La Crosse,"PO Box 9, La Crosse,WI",La Crosse,WI ,-91.187192,43.745422,(608) 788-44
Mountain Top at Grand Geneva,"7036 Grand Geneva Way, Lake Geneva,WI",Lake Geneva,WI ,-88.406458,42.609326,(262) 249-4726
Mt Hardscrabble,"1962 25th St, Rice Lake,WI",Rice Lake,WI ,-91.640587,45.488822,(715) 234-7268
Navarino Slopes,"N685,State Hwy 187, Shiocton,WI",Shiocton,WI ,-88.583879,44.610423,(920) 525-5501
Nordic Mountain,"W5806 CR W, Wild Rose,WI",Wild Rose,WI ,-89.250843,44.178171,(920) 787-3324
Nutt Hill,"West Main St, Plymouth,WI",Plymouth,WI ,-87.990805,43.75036,(920) 892-4148
Powers Bluff,"6990 Bluff Dr, Arpin,WI",Arpin,WI ,-90.060662,44.534759,
Skyline Ski Area,"1900 13th Ct, Friendship,WI",Friendship,WI ,-89.821487,43.980745,(608) 339-3364
Standing Rocks,"6990 Bluff Dr, Arpin,WI",Stevens Point,WI ,-89.398799,44.433484,(715) 824-3949
Sunburst,"8355 Prospect Dr, Kewaskum,WI",Kewaskum,WI ,-88.221975,43.49392,(262) 626-8404
Telemark,"42225 Telemark Rd, Cable,WI",Cable,WI  ,-91.245236,46.187445,(877) 798-4718
Trollhaugen,"2232 100th Ave, Dresser,WI",Dresser,WI ,-92.617548,45.351689,(715) 755-2955
Tyrol Basin,"3487 Bohn Rd, Mt Horeb,WI",Mt Horeb,WI ,-89.780983,43.046244,(608) 437-4135
Whitecap Mountains,"9106 W CR E, Upson,WI",Upson,WI ,-90.393849,46.407344,(715) 561-2227
Wilmot Mountain,"11931 Fox River Re, Wilmot,WI",Wilmot,WI ,-88.187994,42.499477,(262) 862-2301
Woodside Ranch,"W4015 Hwy 82, Mauston,WI",Mauston,WI ,-89.972605,43.796614,(800) 626-4275
Antelope Butte,"PO Box 450, Dayton,WY",Dayton,WY ,-107.514379,44.612164,(307) 655-9530
Beartooth Basin,"US 212, Cody,WY",Cody,WY ,-109.434755,44.975066,(406) 425-2292
Big Horn,"PO Box 86, Ten Sleep,WY",Ten Sleep,WY ,-107.21546,44.164306,(888) 244-4676
Grand Targhee Resort,"3300 E Ski Hill Rd, Alta,WY",Alta,WY ,-110.95902,43.788151,(307) 353-2300
Hogadon,"1800 E K St, Casper,WY",Casper,WY ,-106.317429,42.767064,(307) 235-8499
Jackson Hole,"PO Box 290 Teton Village,WY",Teton Village,WY ,-110.826478,43.586644,(307) 733-2292
Meadowlark Ski Lodge,"426 Forest Service Rd [US Hwy 16], Tensleep,WY 82442",Ten Sleep,WY ,-107.213684,44.173965,(307) 267-2609
Pine Creek,"PO Box 340 Cokeville,WY",Cokeville,WY ,-110.828788,42.103546,(307) 279-3201
Sleeping Giant Ski Resort,"348 Yellowstone Hwy, Cody,WY 82414",Cody,WY ,-109.939443,44.492924,(307) 587-3125
Snow King Resort,"400 E Snow King Ave, Jackson Hole,WY",Jackson Hole,WY ,-110.761147,43.472686,(307) 733-5200
Snowy Range,"3254 US Hwy 130, Centennial,WY",Centennial,WY  ,-106.184418,41.341968,(307) 745-5750
White Pine,"PO Box 1420, Pinedale,WY",Pinedale,WY ,-109.759353,42.977811,(307) 367-6606